FALCONSAT-6             
1 43815U 18099BK  26068.72544389  .00005029  00000+0  19477-3 0  9998
2 43815  97.3865 145.8165 0014370 297.0944 181.0714 15.26532865398556
STARLINK-31358          
1 58977U 24031N   26068.86202153  .00007251  00000+0  25657-3 0  9997
2 58977  53.1603 295.5891 0001137 106.8746 253.2379 15.30215488116544
